{"type":"FeatureCollection","generated":true,"canonical":false,"source_type":"route","source_id":"R011","path_mode":"conceptual","location_provider":"google_places_with_geocoding_fallback","unresolved_location_ids":[],"features":[{"type":"Feature","properties":{"feature_type":"waypoint","spot_id":"S037","name":"志戸子ガジュマル公園","role":"optional","google_place_id":"ChIJzzOYXnoZPTURCTI7PYsTiFI","location_provider":"google_places"},"geometry":{"type":"Point","coordinates":[130.5200634,30.448903199999997]}},{"type":"Feature","properties":{"feature_type":"waypoint","spot_id":"S038","name":"永田いなか浜","role":"core","google_place_id":"ChIJq4lOOgE9PTURhysN4ntEzgw","location_provider":"google_places"},"geometry":{"type":"Point","coordinates":[130.4331373,30.4065904]}},{"type":"Feature","properties":{"feature_type":"waypoint","spot_id":"S039","name":"西部林道","role":"core","google_place_id":"ChIJUffvv0k6PTURxZGT4susESE","location_provider":"google_places"},"geometry":{"type":"Point","coordinates":[130.3966833,30.3354821]}},{"type":"Feature","properties":{"feature_type":"waypoint","spot_id":"S036","name":"大川の滝","role":"core","google_place_id":"ChIJnzqBwks6PTURAlWO4qP4q8g","location_provider":"google_places"},"geometry":{"type":"Point","coordinates":[130.41370519999998,30.299849499999993]}},{"type":"Feature","properties":{"feature_type":"waypoint","spot_id":"S045","name":"手打ちそば 松竹","role":"main_lunch","google_place_id":"ChIJP3cKZ2Q6PTURxP0sh-ZfBFM","location_provider":"google_places"},"geometry":{"type":"Point","coordinates":[130.4249112,30.2742215]}},{"type":"Feature","properties":{"feature_type":"waypoint","spot_id":"S034","name":"トローキの滝","role":"high_priority","google_place_id":"ChIJpZ4RCOMmPTURIa4QaPRlDmg","location_provider":"google_places"},"geometry":{"type":"Point","coordinates":[130.5908327,30.2505858]}},{"type":"Feature","properties":{"feature_type":"waypoint","spot_id":"S035","name":"千尋の滝","role":"high_priority","google_place_id":"ChIJl0Cun-MmPTURDr7kcFzAe1I","location_provider":"google_places"},"geometry":{"type":"Point","coordinates":[130.5822033,30.2623292]}},{"type":"Feature","properties":{"feature_type":"waypoint","spot_id":"S040","name":"中間ガジュマル","role":"optional","google_place_id":"ChIJIeCs_RwxPTURKZ8R6zv8hQM","location_provider":"google_places"},"geometry":{"type":"Point","coordinates":[130.4326218,30.255886500000003]}},{"type":"Feature","properties":{"feature_type":"waypoint","spot_id":"S028","name":"平内海中温泉","role":"condition_high","google_place_id":"ChIJQfhGO_AvPTUR9nspFzmOv84","location_provider":"google_places"},"geometry":{"type":"Point","coordinates":[130.4839206,30.230952199999997]}},{"type":"Feature","properties":{"feature_type":"waypoint","spot_id":"S026","name":"尾之間温泉","role":"fallback_onsen","google_place_id":"ChIJw6nTUdklPTURRwWJ_T8Apsk","location_provider":"google_places"},"geometry":{"type":"Point","coordinates":[130.5487159,30.240386199999996]}}]}
