{"type":"FeatureCollection","generated":true,"canonical":false,"source_type":"route","source_id":"R011","path_mode":"actual","preview":true,"confirmed":false,"routing_provider":"geoapify","routing_strategy":"single_request","route_geometry_complete":true,"failed_segments":[],"ordered_spot_ids":["S037","S038","S036","S045","S034","S035","S040","S028"],"location_keys":{"S035":"S035_ACCESS"},"distance":88162.0,"distance_units":"meters","time":5485.782,"features":[{"type":"Feature","properties":{"feature_type":"routed_path","route_id":"R011","provider":"geoapify","path_mode":"actual","preview":true,"confirmed":false,"distance":88162,"distance_units":"meters","time":5485.782},"geometry":{"type":"MultiLineString","coordinates":[[[130.520749,30.448495],[130.517785,30.450149],[130.517651,30.44839],[130.516622,30.448741],[130.516202,30.450793],[130.512972,30.453171],[130.509237,30.452328],[130.505131,30.453316],[130.502332,30.452077],[130.494307,30.454596],[130.491821,30.453342],[130.489938,30.451255],[130.480359,30.452681],[130.47709,30.452241],[130.47564,30.453978],[130.473694,30.454178],[130.472424,30.452806],[130.472255,30.4497],[130.471141,30.447711],[130.467428,30.444755],[130.467685,30.441388],[130.465092,30.435609],[130.459213,30.429891],[130.455591,30.429318],[130.452346,30.430458],[130.448468,30.428375],[130.44776,30.427571],[130.447947,30.426169],[130.44658,30.425647],[130.44622,30.424067],[130.441126,30.420091],[130.441901,30.4173],[130.44128,30.415076],[130.43904,30.414282],[130.435817,30.409136],[130.435654,30.407726],[130.433955,30.407055]],[[130.433955,30.407055],[130.427767,30.403611],[130.426181,30.399263],[130.426743,30.397521],[130.425782,30.396116],[130.415807,30.394277],[130.414161,30.394687],[130.411084,30.393438],[130.41027,30.395368],[130.408789,30.395971],[130.400426,30.395894],[130.398609,30.39684],[130.392787,30.395057],[130.391937,30.389349],[130.388487,30.389852],[130.386315,30.387224],[130.381375,30.386001],[130.382453,30.382004],[130.382169,30.381101],[130.380884,30.38134],[130.380801,30.380141],[130.382856,30.374533],[130.38123,30.37317],[130.383113,30.372333],[130.384659,30.369075],[130.38792,30.369327],[130.385491,30.368186],[130.387668,30.366066],[130.384818,30.364444],[130.385768,30.36376],[130.385153,30.363372],[130.385405,30.361292],[130.386432,30.359473],[130.385499,30.359396],[130.386811,30.357152],[130.3847,30.355741],[130.3855,30.352982],[130.384933,30.351775],[130.385954,30.35071],[130.387864,30.351238],[130.387474,30.34976],[130.388847,30.348516],[130.38803,30.348121],[130.391765,30.345383],[130.391997,30.343508],[130.389825,30.343753],[130.388994,30.342776],[130.393287,30.339363],[130.394787,30.340516],[130.396565,30.33922],[130.395859,30.338812],[130.396383,30.336664],[130.395659,30.334535],[130.397147,30.331426],[130.392463,30.330295],[130.393018,30.328182],[130.395705,30.326863],[130.395945,30.324203],[130.394425,30.321231],[130.400082,30.319743],[130.398554,30.31875],[130.401974,30.319065],[130.402862,30.318454],[130.406442,30.311859],[130.409629,30.301201],[130.4133,30.297691],[130.414452,30.297491],[130.414275,30.298663]],[[130.414275,30.298663],[130.415102,30.296211],[130.412761,30.295269],[130.412039,30.293689],[130.412698,30.291309],[130.41554,30.288309],[130.416961,30.285132],[130.41587,30.28179],[130.417042,30.273461],[130.418786,30.272558],[130.421032,30.275053],[130.422489,30.275215],[130.424566,30.27384],[130.424961,30.272087]],[[130.424961,30.272087],[130.422541,30.268598],[130.424069,30.262757],[130.428279,30.256783],[130.431779,30.254707],[130.431665,30.251918],[130.433296,30.249853],[130.434701,30.24931],[130.434828,30.247462],[130.4366,30.246572],[130.439018,30.243269],[130.442008,30.241449],[130.449135,30.240663],[130.452731,30.239337],[130.466164,30.239497],[130.470064,30.237744],[130.471465,30.236288],[130.485337,30.234697],[130.489266,30.232974],[130.495918,30.234503],[130.498612,30.23629],[130.505474,30.236151],[130.51363,30.237451],[130.517585,30.237464],[130.524897,30.235626],[130.531822,30.237457],[130.534813,30.234846],[130.536415,30.234499],[130.541154,30.235858],[130.548449,30.234819],[130.550493,30.237552],[130.554509,30.239994],[130.562997,30.242035],[130.570771,30.241863],[130.577203,30.244091],[130.580818,30.244258],[130.584443,30.248642],[130.590496,30.251171]],[[130.590496,30.251171],[130.592749,30.25195],[130.591739,30.255562],[130.592545,30.256225],[130.589903,30.256892],[130.586155,30.255514]],[[130.586155,30.255514],[130.581902,30.252993],[130.585207,30.25394],[130.588549,30.250847],[130.584231,30.248469],[130.581103,30.244391],[130.577203,30.244091],[130.570771,30.241863],[130.562997,30.242035],[130.554509,30.239994],[130.550493,30.237552],[130.548689,30.234863],[130.541154,30.235858],[130.536415,30.234499],[130.534813,30.234846],[130.531822,30.237457],[130.524897,30.235626],[130.517585,30.237464],[130.51363,30.237451],[130.505474,30.236151],[130.498612,30.23629],[130.495918,30.234503],[130.490033,30.23289],[130.483955,30.23495],[130.480663,30.23477],[130.476,30.236245],[130.471465,30.236288],[130.470064,30.237744],[130.466164,30.239497],[130.452731,30.239337],[130.449135,30.240663],[130.442237,30.241345],[130.438729,30.243515],[130.4366,30.246572],[130.434677,30.247669],[130.434701,30.24931],[130.43184,30.251571],[130.431453,30.253576],[130.432539,30.255862]],[[130.432539,30.255862],[130.431453,30.253576],[130.43184,30.251571],[130.434701,30.24931],[130.434677,30.247669],[130.4366,30.246572],[130.438729,30.243515],[130.442008,30.241449],[130.449135,30.240663],[130.452731,30.239337],[130.466908,30.239353],[130.471465,30.236288],[130.485899,30.234567],[130.483796,30.232611],[130.484463,30.232],[130.484048,30.231283]]]}},{"type":"Feature","properties":{"feature_type":"waypoint","spot_id":"S037","location_key":"S037","order":1,"name":"S037"},"geometry":{"type":"Point","coordinates":[130.5204258,30.4483138]}},{"type":"Feature","properties":{"feature_type":"waypoint","spot_id":"S038","location_key":"S038","order":2,"name":"S038"},"geometry":{"type":"Point","coordinates":[130.4336082,30.4073985]}},{"type":"Feature","properties":{"feature_type":"waypoint","spot_id":"S036","location_key":"S036","order":3,"name":"S036"},"geometry":{"type":"Point","coordinates":[130.413506,30.2995927]}},{"type":"Feature","properties":{"feature_type":"waypoint","spot_id":"S045","location_key":"S045","order":4,"name":"S045"},"geometry":{"type":"Point","coordinates":[130.425353,30.2719847]}},{"type":"Feature","properties":{"feature_type":"waypoint","spot_id":"S034","location_key":"S034","order":5,"name":"S034"},"geometry":{"type":"Point","coordinates":[130.5906482,30.2506575]}},{"type":"Feature","properties":{"feature_type":"waypoint","spot_id":"S035","location_key":"S035_ACCESS","order":6,"name":"S035"},"geometry":{"type":"Point","coordinates":[130.5861324,30.2555735]}},{"type":"Feature","properties":{"feature_type":"waypoint","spot_id":"S040","location_key":"S040","order":7,"name":"S040"},"geometry":{"type":"Point","coordinates":[130.4327018,30.2559832]}},{"type":"Feature","properties":{"feature_type":"waypoint","spot_id":"S028","location_key":"S028","order":8,"name":"S028"},"geometry":{"type":"Point","coordinates":[130.4839375,30.2309647]}}]}
